IRIDIUM 71 [-]          
1 25320U 98026B   23082.48975387  .00000862  00000+0  26952-3 0  9995
2 25320  86.3924  74.7229 0000362 152.3243 207.7975 14.39684466306285
IRIDIUM 73 [-]          
1 25344U 98032C   23082.39799867  .00001171  00000+0  29898-3 0  9991
2 25344  86.4455  32.9126 0001891 100.5248 259.6170 14.49769506312450
IRIDIUM 82 [-]          
1 25467U 98051A   23081.68919615  .00013196  00000+0  84605-3 0  9991
2 25467  86.3968 137.4314 0160503  68.5435 293.2828 14.98257146300492
IRIDIUM 2 [-]           
1 25527U 98066A   23081.85513552  .00033749  00000+0  11384-2 0  9992
2 25527  85.5261 224.0760 0006643 247.0528 113.0019 15.30540227337948
