[
  {
    "OBJECT_NAME": "IRIDIUM 71 [-]",
    "OBJECT_ID": "1998-026B",
    "EPOCH": "2023-03-23T11:45:14.734368",
    "MEAN_MOTION": 14.39684466,
    "ECCENTRICITY": 3.62e-5,
    "INCLINATION": 86.3924,
    "RA_OF_ASC_NODE": 74.7229,
    "ARG_OF_PERICENTER": 152.3243,
    "MEAN_ANOMALY": 207.7975,
    "EPHEMERIS_TYPE": 0,
    "CLASSIFICATION_TYPE": "U",
    "NORAD_CAT_ID": 25320,
    "ELEMENT_SET_NO": 999,
    "REV_AT_EPOCH": 30628,
    "BSTAR": 0.00026952,
    "MEAN_MOTION_DOT": 8.62e-6,
    "MEAN_MOTION_DDOT": 0
  },
  {
    "OBJECT_NAME": "IRIDIUM 73 [-]",
    "OBJECT_ID": "1998-032C",
    "EPOCH": "2023-03-23T09:33:07.085088",
    "MEAN_MOTION": 14.49769506,
    "ECCENTRICITY": 0.0001891,
    "INCLINATION": 86.4455,
    "RA_OF_ASC_NODE": 32.9126,
    "ARG_OF_PERICENTER": 100.5248,
    "MEAN_ANOMALY": 259.617,
    "EPHEMERIS_TYPE": 0,
    "CLASSIFICATION_TYPE": "U",
    "NORAD_CAT_ID": 25344,
    "ELEMENT_SET_NO": 999,
    "REV_AT_EPOCH": 31245,
    "BSTAR": 0.00029898,
    "MEAN_MOTION_DOT": 1.171e-5,
    "MEAN_MOTION_DDOT": 0
  },
  {
    "OBJECT_NAME": "IRIDIUM 82 [-]",
    "OBJECT_ID": "1998-051A",
    "EPOCH": "2023-03-22T16:32:26.547360",
    "MEAN_MOTION": 14.98257146,
    "ECCENTRICITY": 0.0160503,
    "INCLINATION": 86.3968,
    "RA_OF_ASC_NODE": 137.4314,
    "ARG_OF_PERICENTER": 68.5435,
    "MEAN_ANOMALY": 293.2828,
    "EPHEMERIS_TYPE": 0,
    "CLASSIFICATION_TYPE": "U",
    "NORAD_CAT_ID": 25467,
    "ELEMENT_SET_NO": 999,
    "REV_AT_EPOCH": 30049,
    "BSTAR": 0.00084605,
    "MEAN_MOTION_DOT": 0.00013196,
    "MEAN_MOTION_DDOT": 0
  },
  {
    "OBJECT_NAME": "IRIDIUM 2 [-]",
    "OBJECT_ID": "1998-066A",
    "EPOCH": "2023-03-22T20:31:23.708928",
    "MEAN_MOTION": 15.30540227,
    "ECCENTRICITY": 0.0006643,
    "INCLINATION": 85.5261,
    "RA_OF_ASC_NODE": 224.076,
    "ARG_OF_PERICENTER": 247.0528,
    "MEAN_ANOMALY": 113.0019,
    "EPHEMERIS_TYPE": 0,
    "CLASSIFICATION_TYPE": "U",
    "NORAD_CAT_ID": 25527,
    "ELEMENT_SET_NO": 999,
    "REV_AT_EPOCH": 33794,
    "BSTAR": 0.0011384,
    "MEAN_MOTION_DOT": 0.00033749,
    "MEAN_MOTION_DDOT": 0
  }
]